0 THORAD AGENA D DEB
1 04180U 69082AY  13281.51418439  .00000350  00000-0  15149-3 0  8639
2 04180 069.9835 028.9150 0075772 147.2933 298.2377 14.30531297284598
0 THORAD AGENA D DEB
1 04180U 69082AY  13283.96668063  .00000428  00000-0  18052-3 0  8643
2 04180 069.9836 023.3591 0075604 143.8482 328.4640 14.30535173284947
0 THORAD AGENA D DEB
1 04180U 69082AY  13286.19203105  .00000352  00000-0  15224-3 0  8658
2 04180 069.9836 018.3180 0075510 140.6862 268.9597 14.30537357285269
0 THORAD AGENA D DEB
1 04180U 69082AY  13288.50926860  .00000544  00000-0  22342-3 0  8668
2 04180 069.9834 013.0690 0075340 137.4352 322.6491 14.30540129285592
0 THORAD AGENA D DEB
1 04180U 69082AY  13290.60927613  .00000427  00000-0  17994-3 0  8677
2 04180 069.9830 008.3119 0075214 134.4634 337.6589 14.30542231285894
0 THORAD AGENA D DEB
1 04180U 69082AY  13292.62961986  .00000409  00000-0  17355-3 0  8684
2 04180 069.9829 003.7352 0075096 131.6012 302.4179 14.30544209286182
0 THORAD AGENA D DEB
1 04180U 69082AY  13295.07720366  .00000400  00000-0  17015-3 0  8696
2 04180 069.9827 358.1904 0074963 128.1320 307.4853 14.30546570286531
